{
  "type": "FeatureCollection",
  "features": [
    {
      "type": "Feature",
      "properties": {
        "norad_id": 37836,
        "name": "EUTELSAT 16A",
        "group": "eutelsat",
        "lat": -0.03693407466160521,
        "lon": 176.46227228324898,
        "alt_km": 35786.55111218451,
        "timestamp": "2025-12-17T04:57:44.071034+00:00",
        "meta_object_name": "EUTELSAT 16A",
        "meta_object_id": "2011-057A",
        "meta_epoch": "2025-12-16T18:34:08.620896",
        "meta_mean_motion": 1.00274259,
        "meta_eccentricity": 0.00061483,
        "meta_inclination": 0.0644,
        "meta_ra_of_asc_node": 329.5878,
        "meta_arg_of_pericenter": 299.6331,
        "meta_mean_anomaly": 110.9958,
        "meta_ephemeris_type": 0,
        "meta_classification_type": "U",
        "meta_norad_cat_id": 37836,
        "meta_element_set_no": 999,
        "meta_rev_at_epoch": 549,
        "meta_bstar": 0,
        "meta_mean_motion_dot": 1.29e-06,
        "meta_mean_motion_ddot": 0,
        "tle_line1": "1 37836U 11057A   25350.77371089  .00000129  00000+0  00000+0 0  9998",
        "tle_line2": "2 37836   0.0644 329.5878 0006148 299.6331 110.9958  1.00274259  5498"
      },
      "geometry": {
        "type": "Point",
        "coordinates": [
          176.46227228324898,
          -0.03693407466160521
        ]
      }
    },
    {
      "type": "Feature",
      "properties": {
        "norad_id": 38992,
        "name": "EUTELSAT 21B",
        "group": "eutelsat",
        "lat": -0.04577460301185063,
        "lon": -177.90845769783,
        "alt_km": 35786.07782067543,
        "timestamp": "2025-12-17T04:57:44.071044+00:00",
        "meta_object_name": "EUTELSAT 21B",
        "meta_object_id": "2012-062B",
        "meta_epoch": "2025-12-16T18:35:45.966048",
        "meta_mean_motion": 1.0027412,
        "meta_eccentricity": 0.00034613,
        "meta_inclination": 0.0729,
        "meta_ra_of_asc_node": 332.617,
        "meta_arg_of_pericenter": 302.3421,
        "meta_mean_anomaly": 111.2629,
        "meta_ephemeris_type": 0,
        "meta_classification_type": "U",
        "meta_norad_cat_id": 38992,
        "meta_element_set_no": 999,
        "meta_rev_at_epoch": 4799,
        "meta_bstar": 0,
        "meta_mean_motion_dot": 1.54e-06,
        "meta_mean_motion_ddot": 0,
        "tle_line1": "1 38992U 12062B   25350.77483757  .00000154  00000+0  00000+0 0  9993",
        "tle_line2": "2 38992   0.0729 332.6170 0003461 302.3421 111.2629  1.00274120 47990"
      },
      "geometry": {
        "type": "Point",
        "coordinates": [
          -177.90845769783,
          -0.04577460301185063
        ]
      }
    },
    {
      "type": "Feature",
      "properties": {
        "norad_id": 39020,
        "name": "EUTELSAT 70B",
        "group": "eutelsat",
        "lat": -0.07317823955475516,
        "lon": -129.01145856627693,
        "alt_km": 35769.09628689316,
        "timestamp": "2025-12-17T04:57:44.071055+00:00",
        "meta_object_name": "EUTELSAT 70B",
        "meta_object_id": "2012-069A",
        "meta_epoch": "2025-12-16T18:49:44.626656",
        "meta_mean_motion": 1.0027112,
        "meta_eccentricity": 0.00043021,
        "meta_inclination": 0.0607,
        "meta_ra_of_asc_node": 355.5919,
        "meta_arg_of_pericenter": 254.8673,
        "meta_mean_anomaly": 188.1453,
        "meta_ephemeris_type": 0,
        "meta_classification_type": "U",
        "meta_norad_cat_id": 39020,
        "meta_element_set_no": 999,
        "meta_rev_at_epoch": 4768,
        "meta_bstar": 0,
        "meta_mean_motion_dot": -1.9e-07,
        "meta_mean_motion_ddot": 0,
        "tle_line1": "1 39020U 12069A   25350.78454429 -.00000019  00000+0  00000+0 0  9999",
        "tle_line2": "2 39020   0.0607 355.5919 0004302 254.8673 188.1453  1.00271120 47689"
      },
      "geometry": {
        "type": "Point",
        "coordinates": [
          -129.01145856627693,
          -0.07317823955475516
        ]
      }
    },
    {
      "type": "Feature",
      "properties": {
        "norad_id": 39122,
        "name": "EUTELSAT 117 WEST A",
        "group": "eutelsat",
        "lat": 0.018427814757728846,
        "lon": 43.731039648844884,
        "alt_km": 35793.901229917334,
        "timestamp": "2025-12-17T04:57:44.071066+00:00",
        "meta_object_name": "EUTELSAT 117 WEST A",
        "meta_object_id": "2013-012A",
        "meta_epoch": "2025-12-16T14:30:45.698976",
        "meta_mean_motion": 1.002726,
        "meta_eccentricity": 0.00027465,
        "meta_inclination": 0.0237,
        "meta_ra_of_asc_node": 37.6058,
        "meta_arg_of_pericenter": 232.2559,
        "meta_mean_anomaly": 276.52,
        "meta_ephemeris_type": 0,
        "meta_classification_type": "U",
        "meta_norad_cat_id": 39122,
        "meta_element_set_no": 999,
        "meta_rev_at_epoch": 4660,
        "meta_bstar": 0,
        "meta_mean_motion_dot": 1.1e-07,
        "meta_mean_motion_ddot": 0,
        "tle_line1": "1 39122U 13012A   25350.60469559  .00000011  00000+0  00000+0 0  9993",
        "tle_line2": "2 39122   0.0237  37.6058 0002746 232.2559 276.5200  1.00272600 46603"
      },
      "geometry": {
        "type": "Point",
        "coordinates": [
          43.731039648844884,
          0.018427814757728846
        ]
      }
    },
    {
      "type": "Feature",
      "properties": {
        "norad_id": 39163,
        "name": "EUTELSAT 7B",
        "group": "eutelsat",
        "lat": 0.0028107374610139004,
        "lon": 167.49847494423653,
        "alt_km": 35802.44416426334,
        "timestamp": "2025-12-17T04:57:44.071077+00:00",
        "meta_object_name": "EUTELSAT 7B",
        "meta_object_id": "2013-022A",
        "meta_epoch": "2025-12-16T20:14:22.189632",
        "meta_mean_motion": 1.00269554,
        "meta_eccentricity": 0.00042447,
        "meta_inclination": 0.0653,
        "meta_ra_of_asc_node": 351.8031,
        "meta_arg_of_pericenter": 327.9598,
        "meta_mean_anomaly": 76.574,
        "meta_ephemeris_type": 0,
        "meta_classification_type": "U",
        "meta_norad_cat_id": 39163,
        "meta_element_set_no": 999,
        "meta_rev_at_epoch": 4611,
        "meta_bstar": 0,
        "meta_mean_motion_dot": 7.2e-07,
        "meta_mean_motion_ddot": 0,
        "tle_line1": "1 39163U 13022A   25350.84331238  .00000072  00000+0  00000+0 0  9994",
        "tle_line2": "2 39163   0.0653 351.8031 0004244 327.9598  76.5740  1.00269554 46119"
      },
      "geometry": {
        "type": "Point",
        "coordinates": [
          167.49847494423653,
          0.0028107374610139004
        ]
      }
    },
    {
      "type": "Feature",
      "properties": {
        "norad_id": 39612,
        "name": "EXPRESS-AT1",
        "group": "eutelsat",
        "lat": -0.021803554170734516,
        "lon": -143.48436805635947,
        "alt_km": 35786.128972678365,
        "timestamp": "2025-12-17T04:57:44.071088+00:00",
        "meta_object_name": "EXPRESS-AT1",
        "meta_object_id": "2014-010A",
        "meta_epoch": "2025-12-16T15:20:10.965984",
        "meta_mean_motion": 1.00270468,
        "meta_eccentricity": 5.539e-05,
        "meta_inclination": 0.0125,
        "meta_ra_of_asc_node": 275.1608,
        "meta_arg_of_pericenter": 218.3894,
        "meta_mean_anomaly": 238.0261,
        "meta_ephemeris_type": 0,
        "meta_classification_type": "U",
        "meta_norad_cat_id": 39612,
        "meta_element_set_no": 999,
        "meta_rev_at_epoch": 4298,
        "meta_bstar": 0,
        "meta_mean_motion_dot": 1.03e-06,
        "meta_mean_motion_ddot": 0,
        "tle_line1": "1 39612U 14010A   25350.63901581  .00000103  00000+0  00000+0 0  9997",
        "tle_line2": "2 39612   0.0125 275.1608 0000553 218.3894 238.0261  1.00270468 42981"
      },
      "geometry": {
        "type": "Point",
        "coordinates": [
          -143.48436805635947,
          -0.021803554170734516
        ]
      }
    },
    {
      "type": "Feature",
      "properties": {
        "norad_id": 39613,
        "name": "EXPRESS-AT2",
        "group": "eutelsat",
        "lat": -0.01566278076996563,
        "lon": -59.63450482208525,
        "alt_km": 35780.720609270225,
        "timestamp": "2025-12-17T04:57:44.071098+00:00",
        "meta_object_name": "EXPRESS-AT2",
        "meta_object_id": "2014-010B",
        "meta_epoch": "2025-12-16T20:52:11.070048",
        "meta_mean_motion": 1.0027289,
        "meta_eccentricity": 0.0001211,
        "meta_inclination": 0.0165,
        "meta_ra_of_asc_node": 313.4468,
        "meta_arg_of_pericenter": 351.2679,
        "meta_mean_anomaly": 233.9428,
        "meta_ephemeris_type": 0,
        "meta_classification_type": "U",
        "meta_norad_cat_id": 39613,
        "meta_element_set_no": 999,
        "meta_rev_at_epoch": 4267,
        "meta_bstar": 0,
        "meta_mean_motion_dot": -2.57e-06,
        "meta_mean_motion_ddot": 0,
        "tle_line1": "1 39613U 14010B   25350.86957257 -.00000257  00000+0  00000+0 0  9995",
        "tle_line2": "2 39613   0.0165 313.4468 0001211 351.2679 233.9428  1.00272890 42672"
      },
      "geometry": {
        "type": "Point",
        "coordinates": [
          -59.63450482208525,
          -0.01566278076996563
        ]
      }
    }
  ]
}